SKYSAT-C1               
1 41601U 16040C   26156.03547156  .00010604  00000+0  30363-3 0  9992
2 41601  96.9565 188.4154 0004279  81.8256 278.3475 15.36087048556001
LAPAN-A3                
1 41603U 16040E   26156.31182059  .00003481  00000+0  11127-3 0  9994
2 41603  97.1489 152.8488 0011992  63.6453 296.6020 15.33026612552993
GAOFEN-3                
1 41727U 16049A   26156.28970605 -.00000035  00000+0  24402-5 0  9993
2 41727  98.4011 164.2554 0001132  97.5951 262.5367 14.42213717516933
SKYSAT-C4               
1 41771U 16058B   26156.31181551  .00015661  00000+0  29904-3 0  9990
2 41771  96.9178 178.5840 0000971  78.7321 281.4039 15.48200882543636
SKYSAT-C5               
1 41772U 16058C   26156.10431794  .00007502  00000+0  22822-3 0  9992
2 41772  97.0472 197.2850 0002427  15.9310 344.2009 15.34289693541897
SKYSAT-C2               
1 41773U 16058D   26156.05887579  .00011729  00000+0  27886-3 0  9994
2 41773  97.0170 178.6127 0005214  96.1934 263.9908 15.41782818543187
SKYSAT-C3               
1 41774U 16058E   26156.08856700  .00020674  00000+0  34468-3 0  9993
2 41774  96.9012 187.4056 0002105  80.5760 279.5732 15.52004595544236
ALSAT-1B                
1 41785U 16059C   26156.27859431  .00000775  00000+0  13013-3 0  9994
2 41785  97.7750 165.5564 0007718 265.9017  94.1309 14.72267131518821
PATHFINDER 1            
1 41787U 16059E   26156.27370834  .00000641  00000+0  12044-3 0  9996
2 41787  97.8166 156.0878 0027073 243.0101 116.8339 14.67649034517964
SCATSAT 1               
1 41790U 16059H   26156.10736326  .00001194  00000+0  16352-3 0  9994
2 41790  98.1196 219.7487 0053315 287.3684  72.1701 14.79499810 99806
GOKTURK 1A              
1 41875U 16073A   26156.27500559  .00000503  00000+0  10783-3 0  9994
2 41875  98.1262  51.1357 0001457  75.4788 284.6576 14.62766005507088
RESOURCESAT-2A          
1 41877U 16074A   26156.31696769  .00000314  00000+0  16312-3 0  9995
2 41877  98.7525 229.9176 0003277 105.6680 254.4859 14.21613290492614
CARTOSAT-2D             
1 41948U 17008A   26155.77623277 -.00002376  00000+0 -10973-3 0  9994
2 41948  97.4117 215.3117 0003841 296.6092  63.4749 15.19226465515697
SENTINEL-2B             
1 42063U 17013A   26156.31936183  .00000268  00000+0  11872-3 0  9998
2 42063  98.5691 231.2605 0001217  83.0409 277.0912 14.30814047482946
CARTOSAT-2E             
1 42767U 17036C   26156.32071907  .00004988  00000+0  24004-3 0  9993
2 42767  97.4275 216.3180 0003388   8.8331 351.2963 15.19226061496346
FORMOSAT-5              
1 42920U 17049A   26156.26015197  .00000199  00000+0  61395-4 0  9995
2 42920  98.2254 231.8346 0012591 117.3170 242.9309 14.50894222464947
SENTINEL-5P             
1 42969U 17064A   26156.07828073  .00000076  00000+0  57303-4 0  9997
2 42969  98.7922  98.2959 0001004  81.1528 278.9761 14.19516861447840
SKYSAT-C11              
1 42987U 17068A   26155.46522134  .00030496  00000+0  41977-3 0  9990
2 42987  97.4344 303.7498 0001220  89.5801 270.5594 15.57213211481264
SKYSAT-C10              
1 42988U 17068B   26156.09839000  .00010353  00000+0  31286-3 0  9996
2 42988  97.4497 292.8308 0001319  89.7372 270.4022 15.34423350480509
SKYSAT-C9               
1 42989U 17068C   26155.19038147  .00014971  00000+0  36175-3 0  9992
2 42989  97.4417 292.7260 0008708 175.2134 184.9197 15.41226215480752
SKYSAT-C8               
1 42990U 17068D   26156.28333502  .00009693  00000+0  27237-3 0  9992
2 42990  97.4515 292.7720 0001593  99.3871 260.7554 15.36732055480481
SKYSAT-C7               
1 42991U 17068E   26154.32299353  .00012311  00000+0  34606-3 0  9990
2 42991  97.4524 291.7746 0006811 147.4751 212.6913 15.36634585480247
SKYSAT-C6               
1 42992U 17068F   26154.84043350  .00010246  00000+0  31167-3 0  9996
2 42992  97.4560 292.3173 0002707 163.5662 196.5669 15.34215986480278
CARTOSAT-2F             
1 43111U 18004A   26156.22092444  .00005308  00000+0  25485-3 0  9992
2 43111  97.4792 215.9715 0000316  11.3968 348.7274 15.19280564465515
GAOFEN-1 02             
1 43259U 18031A   26156.30311712  .00000794  00000+0  12149-3 0  9993
2 43259  98.0527 218.8624 0004488  59.7778 300.3876 14.76464630440943
GAOFEN-1 03             
1 43260U 18031B   26156.28126505  .00000798  00000+0  12218-3 0  9997
2 43260  98.0526 218.7007 0003791 103.0539 257.1094 14.76451421440936
GAOFEN-1 04             
1 43262U 18031D   26156.32478243  .00000615  00000+0  95790-4 0  9998
2 43262  98.0527 218.9330 0002190  93.4655 266.6805 14.76460846440939
SENTINEL-3B             
1 43437U 18039A   26156.05723893  .00000127  00000+0  70354-4 0  9991
2 43437  98.6250 223.7630 0000929  75.6740 284.4543 14.26738213422392
GAOFEN-5 01             
1 43461U 18043A   26156.21030774  .00000361  00000+0  84393-4 0  9998
2 43461  98.4563 127.5456 0002949 105.3345 254.8180 14.60596570429949
GAOFEN-6                
1 43484U 18048A   26156.28017868  .00001035  00000+0  15509-3 0  9995
2 43484  97.7760 219.4004 0011144 207.8166 152.2450 14.76619515431633
