OBJECT_NAME,OBJECT_ID,EPOCH,MEAN_MOTION,ECCENTRICITY,INCLINATION,RA_OF_ASC_NODE,ARG_OF_PERICENTER,MEAN_ANOMALY,EPHEMERIS_TYPE,CLASSIFICATION_TYPE,NORAD_CAT_ID,ELEMENT_SET_NO,REV_AT_EPOCH,BSTAR,MEAN_MOTION_DOT,MEAN_MOTION_DDOT
SKYSAT-C1,2016-040C,2026-06-05T00:51:04.742784,15.36087048,.00042796,96.9565,188.4154,81.8256,278.3475,0,U,41601,999,55600,.30362654E-3,.10604E-3,0
LAPAN-A3,2016-040E,2026-06-05T07:29:01.298976,15.33026612,.00119926,97.1489,152.8488,63.6453,296.6020,0,U,41603,999,55299,.11126855E-3,.3481E-4,0
GAOFEN-3,2016-049A,2026-06-05T06:57:10.602720,14.42213717,.00011329,98.4011,164.2554,97.5951,262.5367,0,U,41727,999,51693,.2440199E-5,-.35E-6,0
SKYSAT-C4,2016-058B,2026-06-05T07:29:00.860064,15.48200882,.00009713,96.9178,178.5840,78.7321,281.4039,0,U,41771,999,54363,.29904111E-3,.15661E-3,0
SKYSAT-C5,2016-058C,2026-06-05T02:30:13.070016,15.34289693,.00024274,97.0472,197.2850,15.9310,344.2009,0,U,41772,999,54189,.22821712E-3,.7502E-4,0
SKYSAT-C2,2016-058D,2026-06-05T01:24:46.868256,15.41782818,.0005214,97.0170,178.6127,96.1934,263.9908,0,U,41773,999,54318,.27886175E-3,.11729E-3,0
SKYSAT-C3,2016-058E,2026-06-05T02:07:32.188800,15.52004595,.00021059,96.9012,187.4056,80.5760,279.5732,0,U,41774,999,54423,.34468436E-3,.20674E-3,0
ALSAT-1B,2016-059C,2026-06-05T06:41:10.548384,14.72267131,.00077182,97.7750,165.5564,265.9017,94.1309,0,U,41785,999,51882,.13013054E-3,.775E-5,0
PATHFINDER 1,2016-059E,2026-06-05T06:34:08.400576,14.67649034,.00270736,97.8166,156.0878,243.0101,116.8339,0,U,41787,999,51796,.12044266E-3,.641E-5,0
SCATSAT 1,2016-059H,2026-06-05T02:34:36.185664,14.79499810,.00533155,98.1196,219.7487,287.3684,72.1701,0,U,41790,999,9980,.16351954E-3,.1194E-4,0
GOKTURK 1A,2016-073A,2026-06-05T06:36:00.482976,14.62766005,.00014578,98.1262,51.1357,75.4788,284.6576,0,U,41875,999,50708,.10783434E-3,.503E-5,0
RESOURCESAT-2A,2016-074A,2026-06-05T07:36:26.008416,14.21613290,.00032771,98.7525,229.9176,105.6680,254.4859,0,U,41877,999,49261,.16312269E-3,.314E-5,0
CARTOSAT-2D,2017-008A,2026-06-04T18:37:46.511328,15.19226465,.00038419,97.4117,215.3117,296.6092,63.4749,0,U,41948,999,51569,-.10973309E-3,-.2376E-4,0
SENTINEL-2B,2017-013A,2026-06-05T07:39:52.862112,14.30814047,.00012179,98.5691,231.2605,83.0409,277.0912,0,U,42063,999,48294,.11871539E-3,.268E-5,0
CARTOSAT-2E,2017-036C,2026-06-05T07:41:50.127648,15.19226061,.00033885,97.4275,216.3180,8.8331,351.2963,0,U,42767,999,49634,.2400351E-3,.4988E-4,0
FORMOSAT-5,2017-049A,2026-06-05T06:14:37.130208,14.50894222,.00125919,98.2254,231.8346,117.3170,242.9309,0,U,42920,999,46494,.61394506E-4,.199E-5,0
SENTINEL-5P,2017-064A,2026-06-05T01:52:43.455072,14.19516861,.00010041,98.7922,98.2959,81.1528,278.9761,0,U,42969,999,44784,.57303153E-4,.76E-6,0
SKYSAT-C11,2017-068A,2026-06-04T11:09:55.123776,15.57213211,.00012207,97.4344,303.7498,89.5801,270.5594,0,U,42987,999,48126,.41977027E-3,.30496E-3,0
SKYSAT-C10,2017-068B,2026-06-05T02:21:40.896000,15.34423350,.00013196,97.4497,292.8308,89.7372,270.4022,0,U,42988,999,48050,.31286229E-3,.10353E-3,0
SKYSAT-C9,2017-068C,2026-06-04T04:34:08.959008,15.41226215,.00087083,97.4417,292.7260,175.2134,184.9197,0,U,42989,999,48075,.36175194E-3,.14971E-3,0
SKYSAT-C8,2017-068D,2026-06-05T06:48:00.145728,15.36732055,.00015934,97.4515,292.7720,99.3871,260.7554,0,U,42990,999,48048,.27237406E-3,.9693E-4,0
SKYSAT-C7,2017-068E,2026-06-03T07:45:06.640992,15.36634585,.00068117,97.4524,291.7746,147.4751,212.6913,0,U,42991,999,48024,.34605537E-3,.12311E-3,0
SKYSAT-C6,2017-068F,2026-06-03T20:10:13.454400,15.34215986,.00027079,97.4560,292.3173,163.5662,196.5669,0,U,42992,999,48027,.31166974E-3,.10246E-3,0
CARTOSAT-2F,2018-004A,2026-06-05T05:18:07.871616,15.19280564,.00003163,97.4792,215.9715,11.3968,348.7274,0,U,43111,999,46551,.2548461E-3,.5308E-4,0
GAOFEN-1 02,2018-031A,2026-06-05T07:16:29.319168,14.76464630,.00044881,98.0527,218.8624,59.7778,300.3876,0,U,43259,999,44094,.12148706E-3,.794E-5,0
GAOFEN-1 03,2018-031B,2026-06-05T06:45:01.300320,14.76451421,.00037916,98.0526,218.7007,103.0539,257.1094,0,U,43260,999,44093,.12217544E-3,.798E-5,0
GAOFEN-1 04,2018-031D,2026-06-05T07:47:41.201952,14.76460846,.00021903,98.0527,218.9330,93.4655,266.6805,0,U,43262,999,44093,.95789691E-4,.615E-5,0
SENTINEL-3B,2018-039A,2026-06-05T01:22:25.443552,14.26738213,.00009298,98.6250,223.7630,75.6740,284.4543,0,U,43437,999,42239,.70353526E-4,.127E-5,0
GAOFEN-5 01,2018-043A,2026-06-05T05:02:50.588736,14.60596570,.00029496,98.4563,127.5456,105.3345,254.8180,0,U,43461,999,42994,.84393156E-4,.361E-5,0
GAOFEN-6,2018-048A,2026-06-05T06:43:27.437952,14.76619515,.00111449,97.7760,219.4004,207.8166,152.2450,0,U,43484,999,43163,.15508934E-3,.1035E-4,0
